OBJECT B                
1 51825U 22019B   25341.97145641  .00044257  00000+0  73506-3 0  9992
2 51825  97.3684  61.4671 0009117 108.4232 251.8013 15.51925469209900
